[{"OBJECT_NAME":"DIWATA-2B","OBJECT_ID":"2018-084H","EPOCH":"2026-03-09T23:44:16.821312","MEAN_MOTION":14.99967379,"ECCENTRICITY":0.00117782,"INCLINATION":98.1039,"RA_OF_ASC_NODE":261.0381,"ARG_OF_PERICENTER":125.8755,"MEAN_ANOMALY":234.3563,"EPHEMERIS_TYPE":0,"CLASSIFICATION_TYPE":"U","NORAD_CAT_ID":43678,"ELEMENT_SET_NO":999,"REV_AT_EPOCH":40134,"BSTAR":0.00041230334,"MEAN_MOTION_DOT":5.066e-5,"MEAN_MOTION_DDOT":0},{"OBJECT_NAME":"STARLINK-36192","OBJECT_ID":"2025-293X","EPOCH":"2026-03-09T11:16:31.149408","MEAN_MOTION":14.98335756,"ECCENTRICITY":0.00029021,"INCLINATION":70.0008,"RA_OF_ASC_NODE":95.0593,"ARG_OF_PERICENTER":267.4893,"MEAN_ANOMALY":92.5933,"EPHEMERIS_TYPE":0,"CLASSIFICATION_TYPE":"U","NORAD_CAT_ID":67024,"ELEMENT_SET_NO":999,"REV_AT_EPOCH":1485,"BSTAR":0.00021542102,"MEAN_MOTION_DOT":2.479e-5,"MEAN_MOTION_DDOT":0}]
